{
    "links": {
        "self": "http://www.neowsapp.com/rest/v1/neo/3780671?api_key=iIulBulltgU6a56xZRHN4H3l9WmuAYTsLGpBGhQ2"
    },
    "id": "3780671",
    "neo_reference_id": "3780671",
    "name": "(2017 PN26)",
    "designation": "2017 PN26",
    "nasa_jpl_url": "http://ssd.jpl.nasa.gov/sbdb.cgi?sstr=3780671",
    "absolute_magnitude_h": 22.4,
    "estimated_diameter": {
        "kilometers": {
            "estimated_diameter_min": 0.0880146521,
            "estimated_diameter_max": 0.1968067451
        },
        "meters": {
            "estimated_diameter_min": 88.0146520901,
            "estimated_diameter_max": 196.8067450894
        },
        "miles": {
            "estimated_diameter_min": 0.0546897524,
            "estimated_diameter_max": 0.122290004
        },
        "feet": {
            "estimated_diameter_min": 288.7619911632,
            "estimated_diameter_max": 645.6914415591
        }
    },
    "is_potentially_hazardous_asteroid": false,
    "close_approach_data": [
        {
            "close_approach_date": "2017-09-07",
            "close_approach_date_full": "2017-Sep-07 10:07",
            "epoch_date_close_approach": 1504778820000,
            "relative_velocity": {
                "kilometers_per_second": "3.1956824403",
                "kilometers_per_hour": "11504.4567850193",
                "miles_per_hour": "7148.4220506694"
            },
            "miss_distance": {
                "astronomical": "0.2584808935",
                "lunar": "100.5490675715",
                "kilometers": "38668191.103296845",
                "miles": "24027299.790892661"
            },
            "orbiting_body": "Earth"
        }
    ],
    "orbital_data": {
        "orbit_id": "7",
        "orbit_determination_date": "2017-10-27 06:41:41",
        "first_observation_date": "2017-08-14",
        "last_observation_date": "2017-10-26",
        "data_arc_in_days": 73,
        "observations_used": 37,
        "orbit_uncertainty": "5",
        "minimum_orbit_intersection": ".249017",
        "jupiter_tisserand_invariant": "3.615",
        "epoch_osculation": "2458000.5",
        "eccentricity": ".408290220556368",
        "semi_major_axis": "2.120880330650573",
        "inclination": "4.701457450777749",
        "ascending_node_longitude": "359.2027124691436",
        "orbital_period": "1128.165133441198",
        "perihelion_distance": "1.254945632675588",
        "perihelion_argument": "350.6854089829869",
        "aphelion_distance": "2.986815028625558",
        "perihelion_time": "2458013.601943879250",
        "mean_anomaly": "355.8191406056462",
        "mean_motion": ".3191022212341432",
        "equinox": "J2000",
        "orbit_class": {
            "orbit_class_type": "AMO",
            "orbit_class_description": "Near-Earth asteroid orbits similar to that of 1221 Amor",
            "orbit_class_range": "1.017 AU < q (perihelion) < 1.3 AU"
        }
    },
    "is_sentry_object": false
}